[{"OBJECT_NAME":"STARLINK-1525","OBJECT_ID":"2020-055AR","EPOCH":"2026-03-10T00:00:02.999808","MEAN_MOTION":15.13670786,"ECCENTRICITY":0.0001869,"INCLINATION":53.0548,"RA_OF_ASC_NODE":94.9738,"ARG_OF_PERICENTER":80.5858,"MEAN_ANOMALY":205.6768,"EPHEMERIS_TYPE":0,"CLASSIFICATION_TYPE":"U","NORAD_CAT_ID":46066,"ELEMENT_SET_NO":999,"REV_AT_EPOCH":574,"BSTAR":0.0022654864,"MEAN_MOTION_DOT":0.00041164,"MEAN_MOTION_DDOT":0},{"OBJECT_NAME":"CZ-6A DEB","OBJECT_ID":"2024-140FM","EPOCH":"2026-03-09T15:58:48.665856","MEAN_MOTION":15.24907574,"ECCENTRICITY":0.01008734,"INCLINATION":89.2247,"RA_OF_ASC_NODE":296.4931,"ARG_OF_PERICENTER":41.247,"MEAN_ANOMALY":319.6342,"EPHEMERIS_TYPE":0,"CLASSIFICATION_TYPE":"U","NORAD_CAT_ID":60786,"ELEMENT_SET_NO":999,"REV_AT_EPOCH":8558,"BSTAR":0.0022097808,"MEAN_MOTION_DOT":0.0006402,"MEAN_MOTION_DDOT":0}]
